{
  "type": "FeatureCollection",
  "features": [
    {
      "type": "Feature",
      "properties": {
        "norad_id": 29887,
        "name": "FENGYUN 1C DEB",
        "group": "fengyun-1c-debris",
        "lat": -76.65485618755115,
        "lon": -140.0956309501468,
        "alt_km": 693.8275064590025,
        "timestamp": "2025-12-24T11:33:00.288757+00:00",
        "meta_object_name": "FENGYUN 1C DEB",
        "meta_object_id": "1999-025GH",
        "meta_epoch": "2025-12-24T03:54:21.358944",
        "meta_mean_motion": 14.33758026,
        "meta_eccentricity": 0.0286317,
        "meta_inclination": 98.7168,
        "meta_ra_of_asc_node": 79.8792,
        "meta_arg_of_pericenter": 325.3682,
        "meta_mean_anomaly": 94.3656,
        "meta_ephemeris_type": 0,
        "meta_classification_type": "U",
        "meta_norad_cat_id": 29887,
        "meta_element_set_no": 999,
        "meta_rev_at_epoch": 98138,
        "meta_bstar": 0.00058547,
        "meta_mean_motion_dot": 2.519e-05,
        "meta_mean_motion_ddot": 0,
        "tle_line1": "1 29887U 99025GH  25358.16274721  .00002519  00000+0  58547-3 0  9990",
        "tle_line2": "2 29887  98.7168  79.8792 0286317 325.3682  94.3656 14.33758026981384"
      },
      "geometry": {
        "type": "Point",
        "coordinates": [
          -140.0956309501468,
          -76.65485618755115
        ]
      }
    },
    {
      "type": "Feature",
      "properties": {
        "norad_id": 29888,
        "name": "FENGYUN 1C DEB",
        "group": "fengyun-1c-debris",
        "lat": 59.27389869030251,
        "lon": 27.464912558763388,
        "alt_km": 936.6167528660826,
        "timestamp": "2025-12-24T11:33:00.288767+00:00",
        "meta_object_name": "FENGYUN 1C DEB",
        "meta_object_id": "1999-025GJ",
        "meta_epoch": "2025-12-23T19:46:44.590080",
        "meta_mean_motion": 14.19880041,
        "meta_eccentricity": 0.02746017,
        "meta_inclination": 99.1913,
        "meta_ra_of_asc_node": 190.9743,
        "meta_arg_of_pericenter": 353.8738,
        "meta_mean_anomaly": 5.9103,
        "meta_ephemeris_type": 0,
        "meta_classification_type": "U",
        "meta_norad_cat_id": 29888,
        "meta_element_set_no": 999,
        "meta_rev_at_epoch": 97661,
        "meta_bstar": 0.00034719434,
        "meta_mean_motion_dot": 1.02e-05,
        "meta_mean_motion_ddot": 0,
        "tle_line1": "1 29888U 99025GJ  25357.82412720  .00001020  00000+0  34719-3 0  9997",
        "tle_line2": "2 29888  99.1913 190.9743 0274601 353.8738   5.9103 14.19880041976612"
      },
      "geometry": {
        "type": "Point",
        "coordinates": [
          27.464912558763388,
          59.27389869030251
        ]
      }
    },
    {
      "type": "Feature",
      "properties": {
        "norad_id": 29889,
        "name": "FENGYUN 1C DEB",
        "group": "fengyun-1c-debris",
        "lat": -67.97983719504016,
        "lon": 140.9684686627083,
        "alt_km": 826.8626669397154,
        "timestamp": "2025-12-24T11:33:00.288777+00:00",
        "meta_object_name": "FENGYUN 1C DEB",
        "meta_object_id": "1999-025GK",
        "meta_epoch": "2025-12-23T19:35:50.123040",
        "meta_mean_motion": 14.13523842,
        "meta_eccentricity": 0.01540167,
        "meta_inclination": 99.4775,
        "meta_ra_of_asc_node": 115.869,
        "meta_arg_of_pericenter": 8.3174,
        "meta_mean_anomaly": 142.7987,
        "meta_ephemeris_type": 0,
        "meta_classification_type": "U",
        "meta_norad_cat_id": 29889,
        "meta_element_set_no": 999,
        "meta_rev_at_epoch": 97475,
        "meta_bstar": 0.00025001312,
        "meta_mean_motion_dot": 4.78e-06,
        "meta_mean_motion_ddot": 0,
        "tle_line1": "1 29889U 99025GK  25357.81655235  .00000478  00000+0  25001-3 0  9997",
        "tle_line2": "2 29889  99.4775 115.8690 0154016   8.3174 142.7987 14.13523842974752"
      },
      "geometry": {
        "type": "Point",
        "coordinates": [
          140.9684686627083,
          -67.97983719504016
        ]
      }
    },
    {
      "type": "Feature",
      "properties": {
        "norad_id": 29890,
        "name": "FENGYUN 1C DEB",
        "group": "fengyun-1c-debris",
        "lat": -17.830576355138824,
        "lon": -62.19592168988178,
        "alt_km": 829.4085882578302,
        "timestamp": "2025-12-24T11:33:00.288788+00:00",
        "meta_object_name": "FENGYUN 1C DEB",
        "meta_object_id": "1999-025GL",
        "meta_epoch": "2025-12-23T21:07:27.063840",
        "meta_mean_motion": 14.23076963,
        "meta_eccentricity": 0.0014424,
        "meta_inclination": 99.4685,
        "meta_ra_of_asc_node": 120.2353,
        "meta_arg_of_pericenter": 42.6359,
        "meta_mean_anomaly": 317.5933,
        "meta_ephemeris_type": 0,
        "meta_classification_type": "U",
        "meta_norad_cat_id": 29890,
        "meta_element_set_no": 999,
        "meta_rev_at_epoch": 97609,
        "meta_bstar": 0.00079862,
        "meta_mean_motion_dot": 1.753e-05,
        "meta_mean_motion_ddot": 0,
        "tle_line1": "1 29890U 99025GL  25357.88017435  .00001753  00000+0  79862-3 0  9991",
        "tle_line2": "2 29890  99.4685 120.2353 0014424  42.6359 317.5933 14.23076963976094"
      },
      "geometry": {
        "type": "Point",
        "coordinates": [
          -62.19592168988178,
          -17.830576355138824
        ]
      }
    },
    {
      "type": "Feature",
      "properties": {
        "norad_id": 29891,
        "name": "FENGYUN 1C DEB",
        "group": "fengyun-1c-debris",
        "lat": -48.32619784261838,
        "lon": 170.13104583895594,
        "alt_km": 856.172069802501,
        "timestamp": "2025-12-24T11:33:00.288798+00:00",
        "meta_object_name": "FENGYUN 1C DEB",
        "meta_object_id": "1999-025GM",
        "meta_epoch": "2025-12-24T00:28:04.907136",
        "meta_mean_motion": 14.00013724,
        "meta_eccentricity": 0.006102,
        "meta_inclination": 98.7273,
        "meta_ra_of_asc_node": 359.6273,
        "meta_arg_of_pericenter": 228.628,
        "meta_mean_anomaly": 194.3884,
        "meta_ephemeris_type": 0,
        "meta_classification_type": "U",
        "meta_norad_cat_id": 29891,
        "meta_element_set_no": 999,
        "meta_rev_at_epoch": 96646,
        "meta_bstar": 0.00053255,
        "meta_mean_motion_dot": 7.54e-06,
        "meta_mean_motion_ddot": 0,
        "tle_line1": "1 29891U 99025GM  25358.01950124  .00000754  00000+0  53255-3 0  9997",
        "tle_line2": "2 29891  98.7273 359.6273 0061020 228.6280 194.3884 14.00013724966469"
      },
      "geometry": {
        "type": "Point",
        "coordinates": [
          170.13104583895594,
          -48.32619784261838
        ]
      }
    },
    {
      "type": "Feature",
      "properties": {
        "norad_id": 29892,
        "name": "FENGYUN 1C DEB",
        "group": "fengyun-1c-debris",
        "lat": -20.582189960537367,
        "lon": -36.761164733195315,
        "alt_km": 723.5933048932338,
        "timestamp": "2025-12-24T11:33:00.288808+00:00",
        "meta_object_name": "FENGYUN 1C DEB",
        "meta_object_id": "1999-025GN",
        "meta_epoch": "2025-12-23T09:32:39.000768",
        "meta_mean_motion": 14.32385562,
        "meta_eccentricity": 0.01922407,
        "meta_inclination": 99.1805,
        "meta_ra_of_asc_node": 145.5732,
        "meta_arg_of_pericenter": 266.5668,
        "meta_mean_anomaly": 111.6423,
        "meta_ephemeris_type": 0,
        "meta_classification_type": "U",
        "meta_norad_cat_id": 29892,
        "meta_element_set_no": 999,
        "meta_rev_at_epoch": 96802,
        "meta_bstar": 0.003533853,
        "meta_mean_motion_dot": 0.00011688,
        "meta_mean_motion_ddot": 0,
        "tle_line1": "1 29892U 99025GN  25357.39767362  .00011688  00000+0  35339-2 0  9998",
        "tle_line2": "2 29892  99.1805 145.5732 0192240 266.5668 111.6423 14.32385562968020"
      },
      "geometry": {
        "type": "Point",
        "coordinates": [
          -36.761164733195315,
          -20.582189960537367
        ]
      }
    },
    {
      "type": "Feature",
      "properties": {
        "norad_id": 29893,
        "name": "FENGYUN 1C DEB",
        "group": "fengyun-1c-debris",
        "lat": -74.1784929502333,
        "lon": -118.65630251735982,
        "alt_km": 1061.995509070598,
        "timestamp": "2025-12-24T11:33:00.288819+00:00",
        "meta_object_name": "FENGYUN 1C DEB",
        "meta_object_id": "1999-025GP",
        "meta_epoch": "2025-12-24T00:44:28.118400",
        "meta_mean_motion": 13.79466533,
        "meta_eccentricity": 0.0173894,
        "meta_inclination": 98.5528,
        "meta_ra_of_asc_node": 93.0126,
        "meta_arg_of_pericenter": 123.0006,
        "meta_mean_anomaly": 56.8205,
        "meta_ephemeris_type": 0,
        "meta_classification_type": "U",
        "meta_norad_cat_id": 29893,
        "meta_element_set_no": 999,
        "meta_rev_at_epoch": 95295,
        "meta_bstar": 0.00018933,
        "meta_mean_motion_dot": 1.82e-06,
        "meta_mean_motion_ddot": 0,
        "tle_line1": "1 29893U 99025GP  25358.03088100  .00000182  00000+0  18933-3 0  9996",
        "tle_line2": "2 29893  98.5528  93.0126 0173894 123.0006  56.8205 13.79466533952958"
      },
      "geometry": {
        "type": "Point",
        "coordinates": [
          -118.65630251735982,
          -74.1784929502333
        ]
      }
    }
  ]
}